[{"OBJECT_NAME":"STARLINK-2034","OBJECT_ID":"2021-005D","EPOCH":"2026-03-09T05:41:37.102272","MEAN_MOTION":15.30193367,"ECCENTRICITY":0.00015383,"INCLINATION":53.1612,"RA_OF_ASC_NODE":54.8446,"ARG_OF_PERICENTER":121.4256,"MEAN_ANOMALY":238.6896,"EPHEMERIS_TYPE":0,"CLASSIFICATION_TYPE":"U","NORAD_CAT_ID":47352,"ELEMENT_SET_NO":999,"REV_AT_EPOCH":28310,"BSTAR":7.075321e-5,"MEAN_MOTION_DOT":1.736e-5,"MEAN_MOTION_DDOT":0},{"OBJECT_NAME":"BREEZE-M DEB","OBJECT_ID":"2006-006V","EPOCH":"2026-03-08T09:21:15.868800","MEAN_MOTION":5.3313176,"ECCENTRICITY":0.50631742,"INCLINATION":51.6411,"RA_OF_ASC_NODE":149.6057,"ARG_OF_PERICENTER":33.3047,"MEAN_ANOMALY":350.2574,"EPHEMERIS_TYPE":0,"CLASSIFICATION_TYPE":"U","NORAD_CAT_ID":32042,"ELEMENT_SET_NO":999,"REV_AT_EPOCH":36655,"BSTAR":0.00079385673,"MEAN_MOTION_DOT":6.87e-6,"MEAN_MOTION_DDOT":0}]
